
# Worst residual: 1.16 km
# MJD 60757.000000 (2025 Mar 23  0:00)
UR29394 = C6ZAK42 = C4CJND2 = bit from 1969-046F
1 79960U 23999ZZK 25082.49919926  .00000000  00000-0  00000-0 0 25481
2 79960 015.9837 031.2312 8095925 264.9148 191.0167 00.46179350    00

# Worst residual: 12.44 km
# MJD 60758.000000 (2025 Mar 24  0:00)
UR29394 = C6ZAK42 = C4CJND2 = bit from 1969-046F
1 79960U 23999ZZK 25083.49919926  .00000000  00000-0  00000-0 0 25482
2 79960 015.9879 031.2366 8095953 264.9262 357.2437 00.46161811    02

# Worst residual: 5.49 km
# MJD 60759.000000 (2025 Mar 25  0:00)
UR29394 = C6ZAK42 = C4CJND2 = bit from 1969-046F
1 79960U 23999ZZK 25084.49919926  .00000000  00000-0  00000-0 0 25483
2 79960 015.9878 031.2446 8095701 264.9414 163.4599 00.46175566    08

# Worst residual: 7.86 km
# MJD 60760.000000 (2025 Mar 26  0:00)
UR29394 = C6ZAK42 = C4CJND2 = bit from 1969-046F
1 79960U 23999ZZK 25085.49919926  .00000000  00000-0  00000-0 0 25484
2 79960 015.9916 031.2700 8095850 264.9406 329.6521 00.46180782    07

# Worst residual: 6.00 km
# MJD 60761.000000 (2025 Mar 27  0:00)
UR29394 = C6ZAK42 = C4CJND2 = bit from 1969-046F
1 79960U 23999ZZK 25086.49919926  .00000000  00000-0  00000-0 0 25485
2 79960 015.9917 031.2849 8095585 264.9584 135.8624 00.46174670    04

# Worst residual: 14.26 km
# MJD 60762.000000 (2025 Mar 28  0:00)
UR29394 = C6ZAK42 = C4CJND2 = bit from 1969-046F
1 79960U 23999ZZK 25087.49919926  .00000000  00000-0  00000-0 0 25486
2 79960 015.9949 031.3447 8094548 264.9282 302.0037 00.46185571    05

# Worst residual: 2.50 km
# MJD 60763.000000 (2025 Mar 29  0:00)
UR29394 = C6ZAK42 = C4CJND2 = bit from 1969-046F
1 79960U 23999ZZK 25088.49919926  .00000000  00000-0  00000-0 0 25487
2 79960 015.9966 031.3423 8094852 264.9565 108.2262 00.46185924    08

# Worst residual: 10.69 km
# MJD 60764.000000 (2025 Mar 30  0:00)
UR29394 = C6ZAK42 = C4CJND2 = bit from 1969-046F
1 79960U 23999ZZK 25089.49919926  .00000000  00000-0  00000-0 0 25488
2 79960 016.0001 031.3796 8092991 264.9469 274.4129 00.46185610    08

# Worst residual: 10.82 km
# MJD 60765.000000 (2025 Mar 31  0:00)
UR29394 = C6ZAK42 = C4CJND2 = bit from 1969-046F
1 79960U 23999ZZK 25090.49919926  .00000000  00000-0  00000-0 0 25480
2 79960 016.0050 031.3754 8091198 264.9608 080.6212 00.46185752    06

# Worst residual: 4.34 km
# MJD 60766.000000 (2025 Apr  1  0:00)
UR29394 = C6ZAK42 = C4CJND2 = bit from 1969-046F
1 79960U 23999ZZK 25091.49919926  .00000000  00000-0  00000-0 0 25481
2 79960 016.0102 031.4320 8093226 264.9178 246.8627 00.46189574    02

# Worst residual: 7.16 km
# MJD 60767.000000 (2025 Apr  2  0:00)
UR29394 = C6ZAK42 = C4CJND2 = bit from 1969-046F
1 79960U 23999ZZK 25092.49919926  .00000000  00000-0  00000-0 0 25482
2 79960 016.0165 031.4380 8091952 264.9300 053.0823 00.46175954    01

# Worst residual: 3.35 km
# MJD 60768.000000 (2025 Apr  3  0:00)
UR29394 = C6ZAK42 = C4CJND2 = bit from 1969-046F
1 79960U 23999ZZK 25093.49919926  .00000000  00000-0  00000-0 0 25483
2 79960 016.0281 031.5901 8097344 264.8024 219.2074 00.46181413    04

# Worst residual: 10.90 km
# MJD 60769.000000 (2025 Apr  4  0:00)
UR29394 = C6ZAK42 = C4CJND2 = bit from 1969-046F
1 79960U 23999ZZK 25094.49919926  .00000000  00000-0  00000-0 0 25484
2 79960 016.0296 031.6480 8099002 264.7827 025.4507 00.46178044    00

# Worst residual: 6.10 km
# MJD 60770.000000 (2025 Apr  5  0:00)
UR29394 = C6ZAK42 = C4CJND2 = bit from 1969-046F
1 79960U 23999ZZK 25095.49919926  .00000000  00000-0  00000-0 0 25485
2 79960 016.0400 031.7734 8098763 264.7082 191.5373 00.46159002    05

# Worst residual: 11.74 km
# MJD 60771.000000 (2025 Apr  6  0:00)
UR29394 = C6ZAK42 = C4CJND2 = bit from 1969-046F
1 79960U 23999ZZK 25096.49919926  .00000000  00000-0  00000-0 0 25486
2 79960 016.0404 031.8837 8100083 264.6486 357.6590 00.46171541    08

# Worst residual: 3.41 km
# MJD 60772.000000 (2025 Apr  7  0:00)
UR29394 = C6ZAK42 = C4CJND2 = bit from 1969-046F
1 79960U 23999ZZK 25097.49919926  .00000000  00000-0  00000-0 0 25487
2 79960 016.0422 031.9121 8097472 264.6599 163.8844 00.46174202    03

# Worst residual: 7.49 km
# MJD 60773.000000 (2025 Apr  8  0:00)
UR29394 = C6ZAK42 = C4CJND2 = bit from 1969-046F
1 79960U 23999ZZK 25098.49919926  .00000000  00000-0  00000-0 0 25488
2 79960 016.0457 031.9647 8093581 264.6341 329.9966 00.46173456    06

# Worst residual: 5.95 km
# MJD 60774.000000 (2025 Apr  9  0:00)
UR29394 = C6ZAK42 = C4CJND2 = bit from 1969-046F
1 79960U 23999ZZK 25099.49919926  .00000000  00000-0  00000-0 0 25489
2 79960 016.0459 031.9771 8093361 264.6456 136.2334 00.46185074    06

# Worst residual: 11.66 km
# MJD 60775.000000 (2025 Apr 10  0:00)
UR29394 = C6ZAK42 = C4CJND2 = bit from 1969-046F
1 79960U 23999ZZK 25100.49919926  .00000000  00000-0  00000-0 0 25482
2 79960 016.0495 032.0120 8090323 264.6193 302.4663 00.46178592    08

# Worst residual: 6.34 km
# MJD 60776.000000 (2025 Apr 11  0:00)
UR29394 = C6ZAK42 = C4CJND2 = bit from 1969-046F
1 79960U 23999ZZK 25101.49919926  .00000000  00000-0  00000-0 0 25483
2 79960 016.0520 032.0101 8091071 264.6402 108.6672 00.46180515    04

# Worst residual: 7.48 km
# MJD 60777.000000 (2025 Apr 12  0:00)
UR29394 = C6ZAK42 = C4CJND2 = bit from 1969-046F
1 79960U 23999ZZK 25102.49919926  .00000000  00000-0  00000-0 0 25484
2 79960 016.0563 032.0725 8092360 264.5943 274.9271 00.46189997    09

# Worst residual: 7.58 km
# MJD 60778.000000 (2025 Apr 13  0:00)
UR29394 = C6ZAK42 = C4CJND2 = bit from 1969-046F
1 79960U 23999ZZK 25103.49919926  .00000000  00000-0  00000-0 0 25485
2 79960 016.0586 032.0658 8091107 264.6181 081.1393 00.46179489    00

# Worst residual: 1.75 km
# MJD 60779.000000 (2025 Apr 14  0:00)
UR29394 = C6ZAK42 = C4CJND2 = bit from 1969-046F
1 79960U 23999ZZK 25104.49919926  .00000000  00000-0  00000-0 0 25486
2 79960 016.0630 032.1202 8093448 264.5826 247.3477 00.46185745    02

# Worst residual: 6.69 km
# MJD 60780.000000 (2025 Apr 15  0:00)
UR29394 = C6ZAK42 = C4CJND2 = bit from 1969-046F
1 79960U 23999ZZK 25105.49919926  .00000000  00000-0  00000-0 0 25487
2 79960 016.0660 032.1338 8092240 264.5928 053.5704 00.46187481    06

# Worst residual: 3.55 km
# MJD 60781.000000 (2025 Apr 16  0:00)
UR29394 = C6ZAK42 = C4CJND2 = bit from 1969-046F
1 79960U 23999ZZK 25106.49919926  .00000000  00000-0  00000-0 0 25488
2 79960 016.0668 032.1399 8093368 264.6099 219.7508 00.46181027    01

# Worst residual: 7.66 km
# MJD 60782.000000 (2025 Apr 17  0:00)
UR29394 = C6ZAK42 = C4CJND2 = bit from 1969-046F
1 79960U 23999ZZK 25107.49919926  .00000000  00000-0  00000-0 0 25489
2 79960 016.0702 032.1487 8092399 264.6247 025.9721 00.46183121    07

# Worst residual: 2.59 km
# MJD 60783.000000 (2025 Apr 18  0:00)
UR29394 = C6ZAK42 = C4CJND2 = bit from 1969-046F
1 79960U 23999ZZK 25108.49919926  .00000000  00000-0  00000-0 0 25480
2 79960 016.0690 032.1361 8092898 264.6578 192.1757 00.46180644    08
